start=new Date('2022-12-28T00:00:00.000Z').valueOf();
sats=[{"RCS_SIZE":"LARGE","PERIOD":"95.436","ECCENTRICITY":"0.00027630","APOAPSIS":"541.580","OBJECT_TYPE":"PAYLOAD","GP_ID":"221566194","TIME_SYSTEM":"UTC","TLE_LINE1":"1 52564U 22051AH  22361.21817893 -.00003000  00000-0 -17031-3 0  9995","PERIAPSIS":"537.757","COUNTRY_CODE":"US","CENTER_NAME":"EARTH","MEAN_MOTION":"15.08865266","REV_AT_EPOCH":"3497","EPHEMERIS_TYPE":"0","MEAN_ANOMALY":"327.7343","REF_FRAME":"TEME","BSTAR":"-0.00017031000000","INCLINATION":"53.2177","LAUNCH_DATE":"2022-05-13","NORAD_CAT_ID":"52564","ARG_OF_PERICENTER":"32.3818","CLASSIFICATION_TYPE":"U","MEAN_ELEMENT_THEORY":"SGP4","FILE":"3723863","DECAY_DATE":null,"OBJECT_NAME":"STARLINK-3959","SEMIMAJOR_AXIS":"6917.803","MEAN_MOTION_DOT":"-0.00003000","MEAN_MOTION_DDOT":"0.0000000000000","RA_OF_ASC_NODE":"339.5970","OBJECT_ID":"2022-051AH","ELEMENT_SET_NO":"999","TLE_LINE2":"2 52564  53.2177 339.5970 0002763  32.3818 327.7343 15.08865266 34977","EPOCH":"2022-12-27T05:14:10.659552","SITE":"AFWTR"},{"ELEMENT_SET_NO":"999","SITE":"AFWTR","TLE_LINE2":"2 52565  53.2170 324.2168 0002007  57.0658 303.0527 15.08850024 35190","EPOCH":"2022-12-27T07:15:25.074720","RA_OF_ASC_NODE":"324.2168","OBJECT_ID":"2022-051AJ","MEAN_MOTION_DOT":"0.00005779","MEAN_MOTION_DDOT":"0.0000000000000","OBJECT_NAME":"STARLINK-3911","SEMIMAJOR_AXIS":"6917.850","ARG_OF_PERICENTER":"57.0658","CLASSIFICATION_TYPE":"U","FILE":"3723863","MEAN_ELEMENT_THEORY":"SGP4","DECAY_DATE":null,"NORAD_CAT_ID":"52565","INCLINATION":"53.2170","BSTAR":"0.00038081000000","LAUNCH_DATE":"2022-05-13","EPHEMERIS_TYPE":"0","MEAN_ANOMALY":"303.0527","REF_FRAME":"TEME","CENTER_NAME":"EARTH","REV_AT_EPOCH":"3519","MEAN_MOTION":"15.08850024","PERIAPSIS":"538.326","COUNTRY_CODE":"US","GP_ID":"221564943","TIME_SYSTEM":"UTC","OBJECT_TYPE":"PAYLOAD","TLE_LINE1":"1 52565U 22051AJ  22361.30237355  .00005779  00000-0  38081-3 0  9996","APOAPSIS":"541.103","ECCENTRICITY":"0.00020070","RCS_SIZE":"LARGE","PERIOD":"95.437"},{"MEAN_MOTION_DOT":"0.00003587","MEAN_MOTION_DDOT":"0.0000000000000","OBJECT_NAME":"STARLINK-3938","SEMIMAJOR_AXIS":"6917.851","ELEMENT_SET_NO":"999","SITE":"AFWTR","TLE_LINE2":"2 52566  53.2180 336.4347 0002374  26.8309 333.2805 15.08849571 35155","EPOCH":"2022-12-27T22:11:38.462208","RA_OF_ASC_NODE":"336.4347","OBJECT_ID":"2022-051AK","BSTAR":"0.00024329000000","INCLINATION":"53.2180","LAUNCH_DATE":"2022-05-13","ARG_OF_PERICENTER":"26.8309","CLASSIFICATION_TYPE":"U","FILE":"3724252","MEAN_ELEMENT_THEORY":"SGP4","DECAY_DATE":null,"NORAD_CAT_ID":"52566","COUNTRY_CODE":"US","PERIAPSIS":"538.074","TIME_SYSTEM":"UTC","GP_ID":"221628574","OBJECT_TYPE":"PAYLOAD","TLE_LINE1":"1 52566U 22051AK  22361.92475072  .00003587  00000-0  24329-3 0  9990","EPHEMERIS_TYPE":"0","MEAN_ANOMALY":"333.2805","REF_FRAME":"TEME","CENTER_NAME":"EARTH","MEAN_MOTION":"15.08849571","REV_AT_EPOCH":"3515","ECCENTRICITY":"0.00023740","RCS_SIZE":"MEDIUM","PERIOD":"95.437","APOAPSIS":"541.358"},{"MEAN_MOTION_DDOT":"0.0000000000000","MEAN_MOTION_DOT":"0.00002589","SEMIMAJOR_AXIS":"6917.843","OBJECT_NAME":"STARLINK-3929","TLE_LINE2":"2 52567  53.2178 321.5665 0002677  24.6693 335.4427 15.08852365 35350","EPOCH":"2022-12-27T21:23:15.956160","SITE":"AFWTR","ELEMENT_SET_NO":"999","OBJECT_ID":"2022-051AL","RA_OF_ASC_NODE":"321.5665","LAUNCH_DATE":"2022-05-13","INCLINATION":"53.2178","BSTAR":"0.00018066000000","FILE":"3724252","MEAN_ELEMENT_THEORY":"SGP4","DECAY_DATE":null,"CLASSIFICATION_TYPE":"U","ARG_OF_PERICENTER":"24.6693","NORAD_CAT_ID":"52567","PERIAPSIS":"537.856","COUNTRY_CODE":"US","TLE_LINE1":"1 52567U 22051AL  22361.89115690  .00002589  00000-0  18066-3 0  9996","OBJECT_TYPE":"PAYLOAD","GP_ID":"221628579","TIME_SYSTEM":"UTC","REF_FRAME":"TEME","MEAN_ANOMALY":"335.4427","EPHEMERIS_TYPE":"0","REV_AT_EPOCH":"3535","MEAN_MOTION":"15.08852365","CENTER_NAME":"EARTH","ECCENTRICITY":"0.00026770","PERIOD":"95.437","RCS_SIZE":"LARGE","APOAPSIS":"541.560"},{"ELEMENT_SET_NO":"999","SITE":"AFWTR","TLE_LINE2":"2 52568  53.2186 322.8145 0002632  34.4781 325.6381 15.08853220 35244","EPOCH":"2022-12-27T14:45:50.205888","RA_OF_ASC_NODE":"322.8145","OBJECT_ID":"2022-051AM","MEAN_MOTION_DOT":"0.00004830","MEAN_MOTION_DDOT":"0.0000000000000","SEMIMAJOR_AXIS":"6917.840","OBJECT_NAME":"STARLINK-3930","ARG_OF_PERICENTER":"34.4781","CLASSIFICATION_TYPE":"U","FILE":"3724149","DECAY_DATE":null,"MEAN_ELEMENT_THEORY":"SGP4","NORAD_CAT_ID":"52568","INCLINATION":"53.2186","BSTAR":"0.00032122000000","LAUNCH_DATE":"2022-05-13","EPHEMERIS_TYPE":"0","MEAN_ANOMALY":"325.6381","REF_FRAME":"TEME","CENTER_NAME":"EARTH","MEAN_MOTION":"15.08853220","REV_AT_EPOCH":"3524","PERIAPSIS":"537.884","COUNTRY_CODE":"US","TIME_SYSTEM":"UTC","GP_ID":"221622447","OBJECT_TYPE":"PAYLOAD","TLE_LINE1":"1 52568U 22051AM  22361.61516442  .00004830  00000-0  32122-3 0  9997","APOAPSIS":"541.526","ECCENTRICITY":"0.00026320","RCS_SIZE":"LARGE","PERIOD":"95.437"},{"ELEMENT_SET_NO":"999","EPOCH":"2022-12-27T22:53:21.283584","TLE_LINE2":"2 52569  53.2174 321.2944 0003052  25.6734 334.4409 15.08865879 35364","SITE":"AFWTR","OBJECT_ID":"2022-051AN","RA_OF_ASC_NODE":"321.2944","MEAN_MOTION_DOT":"0.00008598","MEAN_MOTION_DDOT":"0.0000000000000","OBJECT_NAME":"STARLINK-3927","SEMIMAJOR_AXIS":"6917.801","MEAN_ELEMENT_THEORY":"SGP4","FILE":"3724257","DECAY_DATE":null,"ARG_OF_PERICENTER":"25.6734","CLASSIFICATION_TYPE":"U","NORAD_CAT_ID":"52569","LAUNCH_DATE":"2022-05-13","INCLINATION":"53.2174","BSTAR":"0.00055724000000","REF_FRAME":"TEME","EPHEMERIS_TYPE":"0","MEAN_ANOMALY":"334.4409","MEAN_MOTION":"15.08865879","REV_AT_EPOCH":"3536","CENTER_NAME":"EARTH","COUNTRY_CODE":"US","PERIAPSIS":"537.555","TLE_LINE1":"1 52569U 22051AN  22361.95371856  .00008598  00000-0  55724-3 0  9991","OBJECT_TYPE":"PAYLOAD","GP_ID":"221628588","TIME_SYSTEM":"UTC","APOAPSIS":"541.778","ECCENTRICITY":"0.00030520","PERIOD":"95.436","RCS_SIZE":"LARGE"},{"SEMIMAJOR_AXIS":"6917.860","OBJECT_NAME":"STARLINK-3924","MEAN_MOTION_DDOT":"0.0000000000000","MEAN_MOTION_DOT":"0.00001709","RA_OF_ASC_NODE":"322.8191","OBJECT_ID":"2022-051AP","TLE_LINE2":"2 52570  53.2182 322.8191 0002354  38.6672 321.4488 15.08846680 35244","SITE":"AFWTR","EPOCH":"2022-12-27T14:40:31.851264","ELEMENT_SET_NO":"999","INCLINATION":"53.2182","BSTAR":"0.00012546000000","LAUNCH_DATE":"2022-05-13","NORAD_CAT_ID":"52570","CLASSIFICATION_TYPE":"U","ARG_OF_PERICENTER":"38.6672","FILE":"3724149","DECAY_DATE":null,"MEAN_ELEMENT_THEORY":"SGP4","TIME_SYSTEM":"UTC","GP_ID":"221623449","OBJECT_TYPE":"PAYLOAD","TLE_LINE1":"1 52570U 22051AP  22361.61147976  .00001709  00000-0  12546-3 0  9992","PERIAPSIS":"538.097","COUNTRY_CODE":"US","CENTER_NAME":"EARTH","REV_AT_EPOCH":"3524","MEAN_MOTION":"15.08846680","MEAN_ANOMALY":"321.4488","EPHEMERIS_TYPE":"0","REF_FRAME":"TEME","RCS_SIZE":"MEDIUM","PERIOD":"95.437","ECCENTRICITY":"0.00023540","APOAPSIS":"541.353"},{"APOAPSIS":"540.893","RCS_SIZE":"LARGE","PERIOD":"95.438","ECCENTRICITY":"0.00016360","CENTER_NAME":"EARTH","MEAN_MOTION":"15.08834834","REV_AT_EPOCH":"3514","EPHEMERIS_TYPE":"0","MEAN_ANOMALY":"294.2357","REF_FRAME":"TEME","GP_ID":"221565694","TIME_SYSTEM":"UTC","OBJECT_TYPE":"PAYLOAD","TLE_LINE1":"1 52574U 22051AQ  22360.95645718  .00001740  00000-0  12743-3 0  9993","PERIAPSIS":"538.629","COUNTRY_CODE":"US","NORAD_CAT_ID":"52574","ARG_OF_PERICENTER":"65.8806","CLASSIFICATION_TYPE":"U","DECAY_DATE":null,"FILE":"3723863","MEAN_ELEMENT_THEORY":"SGP4","INCLINATION":"53.2158","BSTAR":"0.00012743000000","LAUNCH_DATE":"2022-05-13","RA_OF_ASC_NODE":"325.7748","OBJECT_ID":"2022-051AQ","ELEMENT_SET_NO":"999","TLE_LINE2":"2 52574  53.2158 325.7748 0001636  65.8806 294.2357 15.08834834 35143","SITE":"AFWTR","EPOCH":"2022-12-26T22:57:17.900352","OBJECT_NAME":"STARLINK-3901","SEMIMAJOR_AXIS":"6917.896","MEAN_MOTION_DOT":"0.00001740","MEAN_MOTION_DDOT":"0.0000000000000"},{"NORAD_CAT_ID":"52575","CLASSIFICATION_TYPE":"U","ARG_OF_PERICENTER":"27.3203","DECAY_DATE":null,"FILE":"3724149","MEAN_ELEMENT_THEORY":"SGP4","INCLINATION":"53.2199","BSTAR":"0.00027119000000","LAUNCH_DATE":"2022-05-13","RA_OF_ASC_NODE":"322.8388","OBJECT_ID":"2022-051AR","EPOCH":"2022-12-27T14:35:13.992576","TLE_LINE2":"2 52575  53.2199 322.8388 0002668  27.3203 332.7929 15.08855409 35242","SITE":"AFWTR","ELEMENT_SET_NO":"999","OBJECT_NAME":"STARLINK-3920","SEMIMAJOR_AXIS":"6917.833","MEAN_MOTION_DDOT":"0.0000000000000","MEAN_MOTION_DOT":"0.00004032","APOAPSIS":"541.544","RCS_SIZE":"LARGE","PERIOD":"95.437","ECCENTRICITY":"0.00026680","CENTER_NAME":"EARTH","REV_AT_EPOCH":"3524","MEAN_MOTION":"15.08855409","MEAN_ANOMALY":"332.7929","EPHEMERIS_TYPE":"0","REF_FRAME":"TEME","GP_ID":"221623699","TIME_SYSTEM":"UTC","OBJECT_TYPE":"PAYLOAD","TLE_LINE1":"1 52575U 22051AR  22361.60780084  .00004032  00000-0  27119-3 0  9993","COUNTRY_CODE":"US","PERIAPSIS":"537.853"},{"NORAD_CAT_ID":"52576","FILE":"3723863","MEAN_ELEMENT_THEORY":"SGP4","DECAY_DATE":null,"ARG_OF_PERICENTER":"31.2666","CLASSIFICATION_TYPE":"U","LAUNCH_DATE":"2022-05-13","BSTAR":"0.00014570000000","INCLINATION":"53.2190","OBJECT_ID":"2022-051AS","RA_OF_ASC_NODE":"324.0570","ELEMENT_SET_NO":"999","SITE":"AFWTR","TLE_LINE2":"2 52576  53.2190 324.0570 0002513  31.2666 328.8476 15.08847671 35208","EPOCH":"2022-12-27T08:04:28.487712","SEMIMAJOR_AXIS":"6917.857","OBJECT_NAME":"STARLINK-3932","MEAN_MOTION_DOT":"0.00002032","MEAN_MOTION_DDOT":"0.0000000000000","APOAPSIS":"541.460","PERIOD":"95.437","RCS_SIZE":"LARGE","ECCENTRICITY":"0.00025130","MEAN_MOTION":"15.08847671","REV_AT_EPOCH":"3520","CENTER_NAME":"EARTH","REF_FRAME":"TEME","EPHEMERIS_TYPE":"0","MEAN_ANOMALY":"328.8476","TLE_LINE1":"1 52576U 22051AS  22361.33644083  .00002032  00000-0  14570-3 0  9997","GP_ID":"221566695","TIME_SYSTEM":"UTC","OBJECT_TYPE":"PAYLOAD","PERIAPSIS":"537.983","COUNTRY_CODE":"US"}];
